{
    "links": {
        "self": "http://www.neowsapp.com/rest/v1/neo/3989237?api_key=iIulBulltgU6a56xZRHN4H3l9WmuAYTsLGpBGhQ2"
    },
    "id": "3989237",
    "neo_reference_id": "3989237",
    "name": "(2020 BH10)",
    "designation": "2020 BH10",
    "nasa_jpl_url": "http://ssd.jpl.nasa.gov/sbdb.cgi?sstr=3989237",
    "absolute_magnitude_h": 27.182,
    "estimated_diameter": {
        "kilometers": {
            "estimated_diameter_min": 0.0097309441,
            "estimated_diameter_max": 0.0217590524
        },
        "meters": {
            "estimated_diameter_min": 9.7309440748,
            "estimated_diameter_max": 21.7590524364
        },
        "miles": {
            "estimated_diameter_min": 0.0060465265,
            "estimated_diameter_max": 0.0135204442
        },
        "feet": {
            "estimated_diameter_min": 31.9256705583,
            "estimated_diameter_max": 71.3879695955
        }
    },
    "is_potentially_hazardous_asteroid": false,
    "close_approach_data": [
        {
            "close_approach_date": "2020-01-17",
            "close_approach_date_full": "2020-Jan-17 04:50",
            "epoch_date_close_approach": 1579236600000,
            "relative_velocity": {
                "kilometers_per_second": "12.3210068299",
                "kilometers_per_hour": "44355.6245877142",
                "miles_per_hour": "27560.8601778494"
            },
            "miss_distance": {
                "astronomical": "0.0065888838",
                "lunar": "2.5630757982",
                "kilometers": "985682.982157506",
                "miles": "612475.0042693428"
            },
            "orbiting_body": "Earth"
        },
        {
            "close_approach_date": "2020-01-17",
            "close_approach_date_full": "2020-Jan-17 04:50",
            "epoch_date_close_approach": 1579236600000,
            "relative_velocity": {
                "kilometers_per_second": "13.3693598264",
                "kilometers_per_hour": "48129.6953748719",
                "miles_per_hour": "29905.9209955697"
            },
            "miss_distance": {
                "astronomical": "0.0074926188",
                "lunar": "2.9146287132",
                "kilometers": "1120879.813201956",
                "miles": "696482.4196047528"
            },
            "orbiting_body": "Moon"
        },
        {
            "close_approach_date": "2103-09-17",
            "close_approach_date_full": "2103-Sep-17 08:13",
            "epoch_date_close_approach": 4219459980000,
            "relative_velocity": {
                "kilometers_per_second": "10.3964158644",
                "kilometers_per_hour": "37427.0971119642",
                "miles_per_hour": "23255.7426471535"
            },
            "miss_distance": {
                "astronomical": "0.2516051143",
                "lunar": "97.8743894627",
                "kilometers": "37639589.180386541",
                "miles": "23388156.1934786258"
            },
            "orbiting_body": "Earth"
        }
    ],
    "orbital_data": {
        "orbit_id": "1",
        "orbit_determination_date": "2020-01-27 21:12:12",
        "first_observation_date": "2020-01-25",
        "last_observation_date": "2020-01-27",
        "data_arc_in_days": 2,
        "observations_used": 10,
        "orbit_uncertainty": "9",
        "minimum_orbit_intersection": ".00655774",
        "jupiter_tisserand_invariant": "5.135",
        "epoch_osculation": "2458874.5",
        "eccentricity": ".4186330870567196",
        "semi_major_axis": "1.222921024043808",
        "inclination": ".3885926372776317",
        "ascending_node_longitude": "197.7440890327654",
        "orbital_period": "493.964847413365",
        "perihelion_distance": ".7109658205217836",
        "perihelion_argument": "191.8963239087096",
        "aphelion_distance": "1.734876227565832",
        "perihelion_time": "2458809.503723043991",
        "mean_anomaly": "47.36907864332808",
        "mean_motion": ".7287967997826795",
        "equinox": "J2000",
        "orbit_class": {
            "orbit_class_type": "APO",
            "orbit_class_description": "Near-Earth asteroid orbits which cross the Earth’s orbit similar to that of 1862 Apollo",
            "orbit_class_range": "a (semi-major axis) > 1.0 AU; q (perihelion) < 1.017 AU"
        }
    },
    "is_sentry_object": false
}